start=new Date('2022-10-23T00:00:00.000Z').valueOf();
sats=[{"MEAN_ELEMENT_THEORY":"SGP4","MEAN_MOTION_DOT":"-0.00000302","OBJECT_ID":"2022-001AS","MEAN_MOTION_DDOT":"0.0000000000000","ELEMENT_SET_NO":"999","TLE_LINE1":"1 50843U 22001AS  22295.77806422 -.00000302  00000-0 -84685-6 0  9995","SEMIMAJOR_AXIS":"6917.889","EPHEMERIS_TYPE":"0","PERIOD":"95.438","ARG_OF_PERICENTER":"35.6730","LAUNCH_DATE":"2022-01-06","INCLINATION":"53.2164","RCS_SIZE":"LARGE","REV_AT_EPOCH":"4398","EPOCH":"2022-10-22T18:40:24.748608","DECAY_DATE":null,"SITE":"AFETR","OBJECT_TYPE":"PAYLOAD","GP_ID":"215926959","COUNTRY_CODE":"US","ECCENTRICITY":"0.00024790","CLASSIFICATION_TYPE":"U","TIME_SYSTEM":"UTC","RA_OF_ASC_NODE":"318.3806","TLE_LINE2":"2 50843  53.2164 318.3806 0002479  35.6730 324.4427 15.08837277 43986","BSTAR":"-0.00000084685000","APOAPSIS":"541.469","CENTER_NAME":"EARTH","NORAD_CAT_ID":"50843","FILE":"3629797","PERIAPSIS":"538.039","OBJECT_NAME":"STARLINK-3325","MEAN_MOTION":"15.08837277","MEAN_ANOMALY":"324.4427","REF_FRAME":"TEME"},{"COUNTRY_CODE":"US","GP_ID":"215927210","DECAY_DATE":null,"SITE":"AFETR","OBJECT_TYPE":"PAYLOAD","EPOCH":"2022-10-22T13:06:33.987744","REV_AT_EPOCH":"4395","RCS_SIZE":"LARGE","TLE_LINE2":"2 50844  53.2161 319.4183 0002636  33.0609 327.0547 15.08837920 43950","BSTAR":"-0.00004558300000","RA_OF_ASC_NODE":"319.4183","TIME_SYSTEM":"UTC","ECCENTRICITY":"0.00026360","CLASSIFICATION_TYPE":"U","APOAPSIS":"541.575","CENTER_NAME":"EARTH","REF_FRAME":"TEME","OBJECT_NAME":"STARLINK-3326","PERIAPSIS":"537.928","MEAN_ANOMALY":"327.0547","MEAN_MOTION":"15.08837920","NORAD_CAT_ID":"50844","FILE":"3629797","OBJECT_ID":"2022-001AT","MEAN_MOTION_DOT":"-0.00001014","MEAN_ELEMENT_THEORY":"SGP4","MEAN_MOTION_DDOT":"0.0000000000000","PERIOD":"95.438","EPHEMERIS_TYPE":"0","SEMIMAJOR_AXIS":"6917.887","TLE_LINE1":"1 50844U 22001AT  22295.54622671 -.00001014  00000-0 -45583-4 0  9996","ELEMENT_SET_NO":"999","INCLINATION":"53.2161","ARG_OF_PERICENTER":"33.0609","LAUNCH_DATE":"2022-01-06"},{"EPHEMERIS_TYPE":"0","PERIOD":"95.437","TLE_LINE1":"1 50845U 22001AU  22295.78909840  .00001581  00000-0  11738-3 0  9990","ELEMENT_SET_NO":"999","SEMIMAJOR_AXIS":"6917.857","LAUNCH_DATE":"2022-01-06","ARG_OF_PERICENTER":"35.2612","INCLINATION":"53.2177","MEAN_MOTION_DOT":"0.00001581","OBJECT_ID":"2022-001AU","MEAN_ELEMENT_THEORY":"SGP4","MEAN_MOTION_DDOT":"0.0000000000000","CENTER_NAME":"EARTH","APOAPSIS":"541.511","REF_FRAME":"TEME","FILE":"3629797","NORAD_CAT_ID":"50845","MEAN_ANOMALY":"324.8550","MEAN_MOTION":"15.08847638","OBJECT_NAME":"STARLINK-3230","PERIAPSIS":"537.933","OBJECT_TYPE":"PAYLOAD","DECAY_DATE":null,"SITE":"AFETR","COUNTRY_CODE":"US","GP_ID":"215927961","RCS_SIZE":"LARGE","REV_AT_EPOCH":"4399","EPOCH":"2022-10-22T18:56:18.101760","BSTAR":"0.00011738000000","TLE_LINE2":"2 50845  53.2177 318.3265 0002586  35.2612 324.8550 15.08847638 43999","CLASSIFICATION_TYPE":"U","ECCENTRICITY":"0.00025860","RA_OF_ASC_NODE":"318.3265","TIME_SYSTEM":"UTC"},{"MEAN_ANOMALY":"321.2641","MEAN_MOTION":"15.08850639","PERIAPSIS":"538.224","OBJECT_NAME":"STARLINK-3308","FILE":"3629797","NORAD_CAT_ID":"50846","REF_FRAME":"TEME","APOAPSIS":"541.202","CENTER_NAME":"EARTH","TIME_SYSTEM":"UTC","RA_OF_ASC_NODE":"318.2422","CLASSIFICATION_TYPE":"U","ECCENTRICITY":"0.00021520","BSTAR":"0.00005043200000","TLE_LINE2":"2 50846  53.2174 318.2422 0002152  38.8506 321.2641 15.08850639 43998","EPOCH":"2022-10-22T19:22:47.382240","RCS_SIZE":"LARGE","REV_AT_EPOCH":"4399","COUNTRY_CODE":"US","GP_ID":"215926709","OBJECT_TYPE":"PAYLOAD","DECAY_DATE":null,"SITE":"AFETR","INCLINATION":"53.2174","LAUNCH_DATE":"2022-01-06","ARG_OF_PERICENTER":"38.8506","SEMIMAJOR_AXIS":"6917.848","ELEMENT_SET_NO":"999","TLE_LINE1":"1 50846U 22001AV  22295.80749285  .00000515  00000-0  50432-4 0  9990","PERIOD":"95.437","EPHEMERIS_TYPE":"0","MEAN_MOTION_DDOT":"0.0000000000000","MEAN_ELEMENT_THEORY":"SGP4","MEAN_MOTION_DOT":"0.00000515","OBJECT_ID":"2022-001AV"},{"CENTER_NAME":"EARTH","APOAPSIS":"541.115","OBJECT_NAME":"STARLINK-3319","PERIAPSIS":"538.428","MEAN_ANOMALY":"308.1891","MEAN_MOTION":"15.08831343","NORAD_CAT_ID":"50847","FILE":"3629797","REF_FRAME":"TEME","EPOCH":"2022-10-22T18:24:31.051584","REV_AT_EPOCH":"4398","RCS_SIZE":"LARGE","COUNTRY_CODE":"US","GP_ID":"215926459","DECAY_DATE":null,"OBJECT_TYPE":"PAYLOAD","SITE":"AFETR","TIME_SYSTEM":"UTC","RA_OF_ASC_NODE":"318.4067","ECCENTRICITY":"0.00019420","CLASSIFICATION_TYPE":"U","TLE_LINE2":"2 50847  53.2164 318.4067 0001942  51.9276 308.1891 15.08831343 43982","BSTAR":"0.00000802890000","SEMIMAJOR_AXIS":"6917.907","TLE_LINE1":"1 50847U 22001AW  22295.76702606 -.00000160  00000-0  80289-5 0  9993","ELEMENT_SET_NO":"999","PERIOD":"95.438","EPHEMERIS_TYPE":"0","INCLINATION":"53.2164","ARG_OF_PERICENTER":"51.9276","LAUNCH_DATE":"2022-01-06","MEAN_ELEMENT_THEORY":"SGP4","OBJECT_ID":"2022-001AW","MEAN_MOTION_DOT":"-0.00000160","MEAN_MOTION_DDOT":"0.0000000000000"},{"INCLINATION":"53.2161","ARG_OF_PERICENTER":"29.8730","LAUNCH_DATE":"2022-01-06","SEMIMAJOR_AXIS":"6917.847","TLE_LINE1":"1 50848U 22001AX  22295.80381476  .00000441  00000-0  45808-4 0  9995","ELEMENT_SET_NO":"999","PERIOD":"95.437","EPHEMERIS_TYPE":"0","MEAN_MOTION_DDOT":"0.0000000000000","MEAN_ELEMENT_THEORY":"SGP4","MEAN_MOTION_DOT":"0.00000441","OBJECT_ID":"2022-001AX","OBJECT_NAME":"STARLINK-3315","PERIAPSIS":"537.883","MEAN_ANOMALY":"330.2412","MEAN_MOTION":"15.08850764","NORAD_CAT_ID":"50848","FILE":"3629797","REF_FRAME":"TEME","CENTER_NAME":"EARTH","APOAPSIS":"541.542","TIME_SYSTEM":"UTC","RA_OF_ASC_NODE":"318.2632","ECCENTRICITY":"0.00026440","CLASSIFICATION_TYPE":"U","TLE_LINE2":"2 50848  53.2161 318.2632 0002644  29.8730 330.2412 15.08850764 43999","BSTAR":"0.00004580800000","EPOCH":"2022-10-22T19:17:29.595264","RCS_SIZE":"LARGE","REV_AT_EPOCH":"4399","GP_ID":"215927711","COUNTRY_CODE":"US","SITE":"AFETR","DECAY_DATE":null,"OBJECT_TYPE":"PAYLOAD"},{"OBJECT_ID":"2022-001AY","MEAN_MOTION_DOT":"-0.00000153","MEAN_ELEMENT_THEORY":"SGP4","MEAN_MOTION_DDOT":"0.0000000000000","PERIOD":"95.437","EPHEMERIS_TYPE":"0","SEMIMAJOR_AXIS":"6917.855","ELEMENT_SET_NO":"999","TLE_LINE1":"1 50849U 22001AY  22295.48366449 -.00000153  00000-0  85184-5 0  9996","INCLINATION":"53.2189","ARG_OF_PERICENTER":"35.8503","LAUNCH_DATE":"2022-01-06","COUNTRY_CODE":"US","GP_ID":"215893762","DECAY_DATE":null,"OBJECT_TYPE":"PAYLOAD","SITE":"AFETR","EPOCH":"2022-10-22T11:36:28.611936","RCS_SIZE":"LARGE","REV_AT_EPOCH":"4394","TLE_LINE2":"2 50849  53.2189 319.7004 0002456  35.8503 324.2653 15.08848270 43949","BSTAR":"0.00000851840000","RA_OF_ASC_NODE":"319.7004","TIME_SYSTEM":"UTC","ECCENTRICITY":"0.00024560","CLASSIFICATION_TYPE":"U","APOAPSIS":"541.419","CENTER_NAME":"EARTH","REF_FRAME":"TEME","PERIAPSIS":"538.021","OBJECT_NAME":"STARLINK-3311","MEAN_MOTION":"15.08848270","MEAN_ANOMALY":"324.2653","NORAD_CAT_ID":"50849","FILE":"3629476"},{"ARG_OF_PERICENTER":"41.7632","LAUNCH_DATE":"2022-01-06","INCLINATION":"53.2187","EPHEMERIS_TYPE":"0","PERIOD":"95.438","TLE_LINE1":"1 50850U 22001AZ  22295.68606978 -.00001118  00000-0 -52123-4 0  9993","ELEMENT_SET_NO":"999","SEMIMAJOR_AXIS":"6917.900","MEAN_MOTION_DDOT":"0.0000000000000","OBJECT_ID":"2022-001AZ","MEAN_MOTION_DOT":"-0.00001118","MEAN_ELEMENT_THEORY":"SGP4","REF_FRAME":"TEME","NORAD_CAT_ID":"50850","FILE":"3629797","PERIAPSIS":"537.953","OBJECT_NAME":"STARLINK-3312","MEAN_ANOMALY":"318.3560","MEAN_MOTION":"15.08833570","APOAPSIS":"541.578","CENTER_NAME":"EARTH","TLE_LINE2":"2 50850  53.2187 278.7760 0002620  41.7632 318.3560 15.08833570 45078","BSTAR":"-0.00005212300000","ECCENTRICITY":"0.00026200","CLASSIFICATION_TYPE":"U","TIME_SYSTEM":"UTC","RA_OF_ASC_NODE":"278.7760","DECAY_DATE":null,"SITE":"AFETR","OBJECT_TYPE":"PAYLOAD","GP_ID":"215926209","COUNTRY_CODE":"US","REV_AT_EPOCH":"4507","RCS_SIZE":"LARGE","EPOCH":"2022-10-22T16:27:56.428992"},{"EPOCH":"2022-10-22T19:12:12.653280","REV_AT_EPOCH":"4399","RCS_SIZE":"LARGE","GP_ID":"215926960","COUNTRY_CODE":"US","OBJECT_TYPE":"PAYLOAD","DECAY_DATE":null,"SITE":"AFETR","TIME_SYSTEM":"UTC","RA_OF_ASC_NODE":"318.2781","ECCENTRICITY":"0.00026610","CLASSIFICATION_TYPE":"U","TLE_LINE2":"2 50851  53.2182 318.2781 0002661  30.1369 329.9775 15.08839176 43994","BSTAR":"-0.00002045600000","APOAPSIS":"541.589","CENTER_NAME":"EARTH","PERIAPSIS":"537.907","OBJECT_NAME":"STARLINK-3314","MEAN_ANOMALY":"329.9775","MEAN_MOTION":"15.08839176","NORAD_CAT_ID":"50851","FILE":"3629797","REF_FRAME":"TEME","MEAN_ELEMENT_THEORY":"SGP4","OBJECT_ID":"2022-001BA","MEAN_MOTION_DOT":"-0.00000614","MEAN_MOTION_DDOT":"0.0000000000000","SEMIMAJOR_AXIS":"6917.883","TLE_LINE1":"1 50851U 22001BA  22295.80014645 -.00000614  00000-0 -20456-4 0  9996","ELEMENT_SET_NO":"999","PERIOD":"95.438","EPHEMERIS_TYPE":"0","INCLINATION":"53.2182","ARG_OF_PERICENTER":"30.1369","LAUNCH_DATE":"2022-01-06"},{"CENTER_NAME":"EARTH","APOAPSIS":"541.187","MEAN_ANOMALY":"318.7556","MEAN_MOTION":"15.08847397","PERIAPSIS":"538.259","OBJECT_NAME":"STARLINK-3366","FILE":"3629797","NORAD_CAT_ID":"51104","REF_FRAME":"TEME","EPOCH":"2022-10-22T18:04:37.996320","RCS_SIZE":"LARGE","REV_AT_EPOCH":"4259","GP_ID":"215926729","COUNTRY_CODE":"US","OBJECT_TYPE":"PAYLOAD","DECAY_DATE":null,"SITE":"AFETR","RA_OF_ASC_NODE":"68.4737","TIME_SYSTEM":"UTC","CLASSIFICATION_TYPE":"U","ECCENTRICITY":"0.00021160","BSTAR":"0.00008397900000","TLE_LINE2":"2 51104  53.2183  68.4737 0002116  41.3596 318.7556 15.08847397 42595","SEMIMAJOR_AXIS":"6917.858","ELEMENT_SET_NO":"999","TLE_LINE1":"1 51104U 22005A   22295.75321755  .00001049  00000-0  83979-4 0  9999","PERIOD":"95.437","EPHEMERIS_TYPE":"0","INCLINATION":"53.2183","LAUNCH_DATE":"2022-01-19","ARG_OF_PERICENTER":"41.3596","MEAN_ELEMENT_THEORY":"SGP4","MEAN_MOTION_DOT":"0.00001049","OBJECT_ID":"2022-005A","MEAN_MOTION_DDOT":"0.0000000000000"}];
